{
"type": "FeatureCollection",
"name": "mrsc",
"crs": { "type": "name", "properties": { "name": "urn:ogc:def:crs:OGC:1.3:CRS84" } },
"features": [
{ "type": "Feature", "properties": { "name": "MRSC", "long_name": "Midvale Rail Service Center", "source": "convex hull (+25 m) of clean stationary trx03 minute-median GPS positions, Jan-Aug 2025" }, "geometry": { "type": "Polygon", "coordinates": [ [ [ -111.905825548894313, 40.624959715704023 ], [ -111.906755416176097, 40.625055743766325 ], [ -111.907205747762021, 40.62519527214473 ], [ -111.907613415285951, 40.625487383975432 ], [ -111.907397961936425, 40.627163085600245 ], [ -111.90548901009447, 40.629403538790775 ], [ -111.905266286120849, 40.62954748289922 ], [ -111.9049603059822, 40.629555944282302 ], [ -111.904486567495695, 40.629447745033183 ], [ -111.903980776241596, 40.629158321948225 ], [ -111.903530666707738, 40.627768409758218 ], [ -111.903587284138524, 40.62720320701883 ], [ -111.903965389798827, 40.626549605786153 ], [ -111.905333350893073, 40.625136973352767 ], [ -111.905825548894313, 40.624959715704023 ] ] ] } }
]
}
