{
"type": "FeatureCollection",
"name": "trax_depots",
"crs": { "type": "name", "properties": { "name": "urn:ogc:def:crs:OGC:1.3:CRS84" } },
"features": [
{ "type": "Feature", "properties": { "site": "JRRSC", "source": "5-95% box (+15 m) of degraded-fix trx01 minute medians, Jan-Aug 2025" }, "geometry": { "type": "Polygon", "coordinates": [ [ [ -111.91874843348819, 40.721692314305741 ], [ -111.918771034794204, 40.723335862789781 ], [ -111.920206655665368, 40.723324426328745 ], [ -111.920184019055938, 40.721680878503832 ], [ -111.91874843348819, 40.721692314305741 ] ] ] } },
{ "type": "Feature", "properties": { "site": "MRSC", "source": "5-95% box (+15 m) of degraded-fix trx03 minute medians, Jan-Aug 2025" }, "geometry": { "type": "Polygon", "coordinates": [ [ [ -111.903903962666035, 40.626222191873886 ], [ -111.903931501294096, 40.628264546826777 ], [ -111.90657252516931, 40.628243843904215 ], [ -111.906544906108238, 40.626201490434781 ], [ -111.903903962666035, 40.626222191873886 ] ] ] } }
]
}
